CCSDS_OMM_VERS = 2.0
CREATION_DATE  = 
ORIGINATOR     = 

OBJECT_NAME    = SOYUZ-MS 28
OBJECT_ID      = 2025-275A
CENTER_NAME    = EARTH
REF_FRAME      = TEME
TIME_SYSTEM    = UTC
MEAN_ELEMENT_THEORY = SGP/SGP4

EPOCH          = 2026-01-11T09:40:05.985984
MEAN_MOTION    = 15.49235693
ECCENTRICITY   = .00076976
INCLINATION    = 51.6334
RA_OF_ASC_NODE = 355.6191
ARG_OF_PERICENTER = 6.1669
MEAN_ANOMALY   = 353.9413

EPHEMERIS_TYPE = 0
CLASSIFICATION_TYPE = U
NORAD_CAT_ID   = 66664
ELEMENT_SET_NO = 999
REV_AT_EPOCH   = 128
BSTAR          = .20258651E-3
MEAN_MOTION_DOT = .10825E-3
MEAN_MOTION_DDOT = 0

CCSDS_OMM_VERS = 2.0
CREATION_DATE  = 
ORIGINATOR     = 

OBJECT_NAME    = 1998-067XS
OBJECT_ID      = 1998-067XS
CENTER_NAME    = EARTH
REF_FRAME      = TEME
TIME_SYSTEM    = UTC
MEAN_ELEMENT_THEORY = SGP/SGP4

EPOCH          = 2026-01-11T05:32:45.248928
MEAN_MOTION    = 15.52317167
ECCENTRICITY   = .00023048
INCLINATION    = 51.6320
RA_OF_ASC_NODE = 355.9745
ARG_OF_PERICENTER = 357.1095
MEAN_ANOMALY   = 2.9881

EPHEMERIS_TYPE = 0
CLASSIFICATION_TYPE = U
NORAD_CAT_ID   = 66906
ELEMENT_SET_NO = 999
REV_AT_EPOCH   = 619
BSTAR          = .52691501E-3
MEAN_MOTION_DOT = .32329E-3
MEAN_MOTION_DDOT = 0

CCSDS_OMM_VERS = 2.0
CREATION_DATE  = 
ORIGINATOR     = 

OBJECT_NAME    = 1998-067XT
OBJECT_ID      = 1998-067XT
CENTER_NAME    = EARTH
REF_FRAME      = TEME
TIME_SYSTEM    = UTC
MEAN_ELEMENT_THEORY = SGP/SGP4

EPOCH          = 2026-01-11T04:31:45.458112
MEAN_MOTION    = 15.55895824
ECCENTRICITY   = .00037173
INCLINATION    = 51.6317
RA_OF_ASC_NODE = 355.6918
ARG_OF_PERICENTER = 42.4368
MEAN_ANOMALY   = 317.6910

EPHEMERIS_TYPE = 0
CLASSIFICATION_TYPE = U
NORAD_CAT_ID   = 66907
ELEMENT_SET_NO = 999
REV_AT_EPOCH   = 619
BSTAR          = .13111577E-2
MEAN_MOTION_DOT = .93235E-3
MEAN_MOTION_DDOT = 0

CCSDS_OMM_VERS = 2.0
CREATION_DATE  = 
ORIGINATOR     = 

OBJECT_NAME    = 1998-067XU
OBJECT_ID      = 1998-067XU
CENTER_NAME    = EARTH
REF_FRAME      = TEME
TIME_SYSTEM    = UTC
MEAN_ELEMENT_THEORY = SGP/SGP4

EPOCH          = 2026-01-11T15:17:45.113280
MEAN_MOTION    = 15.55929380
ECCENTRICITY   = .00036596
INCLINATION    = 51.6304
RA_OF_ASC_NODE = 353.4362
ARG_OF_PERICENTER = 40.6555
MEAN_ANOMALY   = 319.4710

EPHEMERIS_TYPE = 0
CLASSIFICATION_TYPE = U
NORAD_CAT_ID   = 66908
ELEMENT_SET_NO = 999
REV_AT_EPOCH   = 626
BSTAR          = .99318066E-3
MEAN_MOTION_DOT = .70389E-3
MEAN_MOTION_DDOT = 0

CCSDS_OMM_VERS = 2.0
CREATION_DATE  = 
ORIGINATOR     = 

OBJECT_NAME    = SILVERSAT
OBJECT_ID      = 1998-067XV
CENTER_NAME    = EARTH
REF_FRAME      = TEME
TIME_SYSTEM    = UTC
MEAN_ELEMENT_THEORY = SGP/SGP4

EPOCH          = 2026-01-11T04:20:24.048096
MEAN_MOTION    = 15.56521403
ECCENTRICITY   = .00039111
INCLINATION    = 51.6315
RA_OF_ASC_NODE = 355.6383
ARG_OF_PERICENTER = 48.1318
MEAN_ANOMALY   = 312.0007

EPHEMERIS_TYPE = 0
CLASSIFICATION_TYPE = U
NORAD_CAT_ID   = 66909
ELEMENT_SET_NO = 999
REV_AT_EPOCH   = 619
BSTAR          = .14187607E-2
MEAN_MOTION_DOT = .103438E-2
MEAN_MOTION_DDOT = 0

CCSDS_OMM_VERS = 2.0
CREATION_DATE  = 
ORIGINATOR     = 

OBJECT_NAME    = 1998-067XW
OBJECT_ID      = 1998-067XW
CENTER_NAME    = EARTH
REF_FRAME      = TEME
TIME_SYSTEM    = UTC
MEAN_ELEMENT_THEORY = SGP/SGP4

EPOCH          = 2026-01-11T10:31:15.011616
MEAN_MOTION    = 15.56239623
ECCENTRICITY   = .00026945
INCLINATION    = 51.6294
RA_OF_ASC_NODE = 354.3562
ARG_OF_PERICENTER = 25.6692
MEAN_ANOMALY   = 334.4433

EPHEMERIS_TYPE = 0
CLASSIFICATION_TYPE = U
NORAD_CAT_ID   = 66910
ELEMENT_SET_NO = 999
REV_AT_EPOCH   = 623
BSTAR          = .12892651E-2
MEAN_MOTION_DOT = .92834E-3
MEAN_MOTION_DDOT = 0

CCSDS_OMM_VERS = 2.0
CREATION_DATE  = 
ORIGINATOR     = 

OBJECT_NAME    = 1998-067XX
OBJECT_ID      = 1998-067XX
CENTER_NAME    = EARTH
REF_FRAME      = TEME
TIME_SYSTEM    = UTC
MEAN_ELEMENT_THEORY = SGP/SGP4

EPOCH          = 2026-01-11T13:17:38.970528
MEAN_MOTION    = 15.57304192
ECCENTRICITY   = .00027763
INCLINATION    = 51.6299
RA_OF_ASC_NODE = 353.6286
ARG_OF_PERICENTER = 42.4258
MEAN_ANOMALY   = 317.6949

EPHEMERIS_TYPE = 0
CLASSIFICATION_TYPE = U
NORAD_CAT_ID   = 66911
ELEMENT_SET_NO = 999
REV_AT_EPOCH   = 624
BSTAR          = .11872404E-2
MEAN_MOTION_DOT = .88873E-3
MEAN_MOTION_DDOT = 0

CCSDS_OMM_VERS = 2.0
CREATION_DATE  = 
ORIGINATOR     = 

OBJECT_NAME    = 1998-067XY
OBJECT_ID      = 1998-067XY
CENTER_NAME    = EARTH
REF_FRAME      = TEME
TIME_SYSTEM    = UTC
MEAN_ELEMENT_THEORY = SGP/SGP4

EPOCH          = 2026-01-11T07:59:09.847104
MEAN_MOTION    = 15.54595240
ECCENTRICITY   = .00036091
INCLINATION    = 51.6322
RA_OF_ASC_NODE = 355.1520
ARG_OF_PERICENTER = 27.2511
MEAN_ANOMALY   = 332.8669

EPHEMERIS_TYPE = 0
CLASSIFICATION_TYPE = U
NORAD_CAT_ID   = 66912
ELEMENT_SET_NO = 999
REV_AT_EPOCH   = 620
BSTAR          = .10089141E-2
MEAN_MOTION_DOT = .68049E-3
MEAN_MOTION_DDOT = 0

