SOYUZ-MS 28             
1 66664U 25275A   26011.40284706  .00010825  00000+0  20259-3 0  9996
2 66664  51.6334 355.6191 0007697   6.1669 353.9413 15.49235693  1285
1998-067XS              
1 66906U 98067XS  26011.23107927  .00032329  00000+0  52692-3 0  9993
2 66906  51.6320 355.9745 0002304 357.1095   2.9881 15.52317167  6195
1998-067XT              
1 66907U 98067XT  26011.18872058  .00093235  00000+0  13112-2 0  9998
2 66907  51.6317 355.6918 0003717  42.4368 317.6910 15.55895824  6190
1998-067XU              
1 66908U 98067XU  26011.63732770  .00070389  00000+0  99318-3 0  9993
2 66908  51.6304 353.4362 0003659  40.6555 319.4710 15.55929380  6260
SILVERSAT               
1 66909U 98067XV  26011.18083389  .00103438  00000+0  14188-2 0  9992
2 66909  51.6315 355.6383 0003911  48.1318 312.0007 15.56521403  6196
1998-067XW              
1 66910U 98067XW  26011.43836819  .00092834  00000+0  12893-2 0  9994
2 66910  51.6294 354.3562 0002694  25.6692 334.4433 15.56239623  6237
1998-067XX              
1 66911U 98067XX  26011.55392327  .00088873  00000+0  11872-2 0  9993
2 66911  51.6299 353.6286 0002776  42.4258 317.6949 15.57304192  6245
1998-067XY              
1 66912U 98067XY  26011.33275286  .00068049  00000+0  10089-2 0  9996
2 66912  51.6322 355.1520 0003609  27.2511 332.8669 15.54595240  6207
